IRIDIUM 33 DEB          
1 33878U 97051AX  17345.79578108 -.00000502  00000-0 -15727-3 0  9990
2 33878  86.3177 212.0570 0102763 183.0259 177.0333 14.39798997458420
